start=new Date('2022-09-20T00:00:00.000Z').valueOf();
sats=[{"EPOCH":"2022-09-19T20:41:47.023584","CENTER_NAME":"EARTH","PERIAPSIS":"546.230","LAUNCH_DATE":"2020-02-17","GP_ID":"213029537","EPHEMERIS_TYPE":"0","TLE_LINE1":"1 45182U 20012E   22262.86234981  .00003979  00000-0  28576-3 0  9999","ARG_OF_PERICENTER":"71.3713","ECCENTRICITY":"0.00013630","RA_OF_ASC_NODE":"313.6210","OBJECT_TYPE":"PAYLOAD","SITE":"AFETR","TIME_SYSTEM":"UTC","TLE_LINE2":"2 45182  53.0537 313.6210 0001363  71.3713 288.7424 15.06413056144023","SEMIMAJOR_AXIS":"6925.309","MEAN_ANOMALY":"288.7424","REF_FRAME":"TEME","MEAN_MOTION_DDOT":"0.0000000000000","MEAN_MOTION":"15.06413056","PERIOD":"95.591","CLASSIFICATION_TYPE":"U","MEAN_ELEMENT_THEORY":"SGP4","DECAY_DATE":null,"REV_AT_EPOCH":"14402","MEAN_MOTION_DOT":"0.00003979","OBJECT_ID":"2020-012E","FILE":"3578162","INCLINATION":"53.0537","NORAD_CAT_ID":"45182","APOAPSIS":"548.117","RCS_SIZE":"LARGE","ELEMENT_SET_NO":"999","OBJECT_NAME":"STARLINK-1201","BSTAR":"0.00028576000000","COUNTRY_CODE":"US"},{"EPHEMERIS_TYPE":"0","TLE_LINE1":"1 45183U 20012F   22262.61356404  .00000400  00000-0  45777-4 0  9997","EPOCH":"2022-09-19T14:43:31.933056","GP_ID":"213029788","LAUNCH_DATE":"2020-02-17","PERIAPSIS":"546.194","CENTER_NAME":"EARTH","MEAN_MOTION_DDOT":"0.0000000000000","OBJECT_TYPE":"PAYLOAD","RA_OF_ASC_NODE":"334.7560","ARG_OF_PERICENTER":"81.4454","ECCENTRICITY":"0.00015540","REF_FRAME":"TEME","SEMIMAJOR_AXIS":"6925.405","TLE_LINE2":"2 45183  53.0551 334.7560 0001554  81.4454 278.6711 15.06381437143863","MEAN_ANOMALY":"278.6711","TIME_SYSTEM":"UTC","SITE":"AFETR","MEAN_MOTION_DOT":"0.00000400","OBJECT_ID":"2020-012F","CLASSIFICATION_TYPE":"U","MEAN_ELEMENT_THEORY":"SGP4","PERIOD":"95.593","MEAN_MOTION":"15.06381437","REV_AT_EPOCH":"14386","DECAY_DATE":null,"RCS_SIZE":"LARGE","ELEMENT_SET_NO":"999","OBJECT_NAME":"STARLINK-1202","COUNTRY_CODE":"US","BSTAR":"0.00004577700000","INCLINATION":"53.0551","FILE":"3578162","APOAPSIS":"548.347","NORAD_CAT_ID":"45183"},{"MEAN_MOTION_DOT":"0.00003592","OBJECT_ID":"2020-012G","MEAN_ELEMENT_THEORY":"SGP4","CLASSIFICATION_TYPE":"U","MEAN_MOTION":"15.06395736","PERIOD":"95.592","REV_AT_EPOCH":"14316","DECAY_DATE":null,"RCS_SIZE":"LARGE","ELEMENT_SET_NO":"999","OBJECT_NAME":"STARLINK-1205","COUNTRY_CODE":"US","BSTAR":"0.00025997000000","FILE":"3577889","INCLINATION":"53.0553","NORAD_CAT_ID":"45184","APOAPSIS":"548.280","EPHEMERIS_TYPE":"0","TLE_LINE1":"1 45184U 20012G   22262.53800789  .00003592  00000-0  25997-3 0  9995","EPOCH":"2022-09-19T12:54:43.881696","PERIAPSIS":"546.173","GP_ID":"212998522","LAUNCH_DATE":"2020-02-17","CENTER_NAME":"EARTH","MEAN_MOTION_DDOT":"0.0000000000000","OBJECT_TYPE":"PAYLOAD","RA_OF_ASC_NODE":"315.0929","ARG_OF_PERICENTER":"62.7774","ECCENTRICITY":"0.00015210","TLE_LINE2":"2 45184  53.0553 315.0929 0001521  62.7774 297.3370 15.06395736143167","SEMIMAJOR_AXIS":"6925.362","MEAN_ANOMALY":"297.3370","REF_FRAME":"TEME","SITE":"AFETR","TIME_SYSTEM":"UTC"},{"INCLINATION":"53.0571","FILE":"3578162","APOAPSIS":"548.170","NORAD_CAT_ID":"45185","RCS_SIZE":"LARGE","ELEMENT_SET_NO":"999","OBJECT_NAME":"STARLINK-1216","BSTAR":"0.00013134000000","COUNTRY_CODE":"US","PERIOD":"95.592","MEAN_MOTION":"15.06401033","CLASSIFICATION_TYPE":"U","MEAN_ELEMENT_THEORY":"SGP4","DECAY_DATE":null,"REV_AT_EPOCH":"14380","MEAN_MOTION_DOT":"0.00001675","OBJECT_ID":"2020-012H","ARG_OF_PERICENTER":"77.7566","ECCENTRICITY":"0.00013860","RA_OF_ASC_NODE":"334.7855","OBJECT_TYPE":"PAYLOAD","TIME_SYSTEM":"UTC","SITE":"AFETR","REF_FRAME":"TEME","TLE_LINE2":"2 45185  53.0571 334.7855 0001386  77.7566 282.3578 15.06401033143801","MEAN_ANOMALY":"282.3578","SEMIMAJOR_AXIS":"6925.345","MEAN_MOTION_DDOT":"0.0000000000000","EPOCH":"2022-09-19T14:32:53.901024","CENTER_NAME":"EARTH","LAUNCH_DATE":"2020-02-17","GP_ID":"213029288","PERIAPSIS":"546.251","EPHEMERIS_TYPE":"0","TLE_LINE1":"1 45185U 20012H   22262.60617941  .00001675  00000-0  13134-3 0  9990"},{"MEAN_MOTION_DDOT":"0.0000000000000","REF_FRAME":"TEME","SEMIMAJOR_AXIS":"6925.364","TLE_LINE2":"2 45186  53.0569 334.7225 0001303  69.0310 291.0818 15.06394958143801","MEAN_ANOMALY":"291.0818","TIME_SYSTEM":"UTC","SITE":"AFETR","OBJECT_TYPE":"PAYLOAD","RA_OF_ASC_NODE":"334.7225","ECCENTRICITY":"0.00013030","ARG_OF_PERICENTER":"69.0310","TLE_LINE1":"1 45186U 20012J   22262.62093218  .00000464  00000-0  50064-4 0  9997","EPHEMERIS_TYPE":"0","LAUNCH_DATE":"2020-02-17","GP_ID":"213029038","PERIAPSIS":"546.327","CENTER_NAME":"EARTH","EPOCH":"2022-09-19T14:54:08.540352","COUNTRY_CODE":"US","BSTAR":"0.00005006400000","RCS_SIZE":"LARGE","OBJECT_NAME":"STARLINK-1224","ELEMENT_SET_NO":"999","APOAPSIS":"548.131","NORAD_CAT_ID":"45186","INCLINATION":"53.0569","FILE":"3578162","OBJECT_ID":"2020-012J","MEAN_MOTION_DOT":"0.00000464","REV_AT_EPOCH":"14380","DECAY_DATE":null,"CLASSIFICATION_TYPE":"U","MEAN_ELEMENT_THEORY":"SGP4","PERIOD":"95.592","MEAN_MOTION":"15.06394958"},{"TLE_LINE1":"1 45187U 20012K   22262.89000248  .00000961  00000-0  83387-4 0  9994","EPHEMERIS_TYPE":"0","CENTER_NAME":"EARTH","PERIAPSIS":"546.151","LAUNCH_DATE":"2020-02-17","GP_ID":"213030288","EPOCH":"2022-09-19T21:21:36.214272","MEAN_MOTION_DDOT":"0.0000000000000","SITE":"AFETR","TIME_SYSTEM":"UTC","MEAN_ANOMALY":"291.8240","TLE_LINE2":"2 45187  53.0563 333.5156 0001517  68.2911 291.8240 15.06403847143895","SEMIMAJOR_AXIS":"6925.337","REF_FRAME":"TEME","ARG_OF_PERICENTER":"68.2911","ECCENTRICITY":"0.00015170","OBJECT_TYPE":"PAYLOAD","RA_OF_ASC_NODE":"333.5156","OBJECT_ID":"2020-012K","MEAN_MOTION_DOT":"0.00000961","DECAY_DATE":null,"REV_AT_EPOCH":"14389","MEAN_MOTION":"15.06403847","PERIOD":"95.592","MEAN_ELEMENT_THEORY":"SGP4","CLASSIFICATION_TYPE":"U","BSTAR":"0.00008338700000","COUNTRY_CODE":"US","RCS_SIZE":"LARGE","ELEMENT_SET_NO":"999","OBJECT_NAME":"STARLINK-1225","NORAD_CAT_ID":"45187","APOAPSIS":"548.252","FILE":"3578162","INCLINATION":"53.0563"},{"SITE":"AFETR","TIME_SYSTEM":"UTC","MEAN_ANOMALY":"304.3452","TLE_LINE2":"2 45188  53.0543 295.1613 0001464  55.7675 304.3452 15.06387290143410","SEMIMAJOR_AXIS":"6925.388","REF_FRAME":"TEME","ARG_OF_PERICENTER":"55.7675","ECCENTRICITY":"0.00014640","OBJECT_TYPE":"PAYLOAD","RA_OF_ASC_NODE":"295.1613","MEAN_MOTION_DDOT":"0.0000000000000","CENTER_NAME":"EARTH","PERIAPSIS":"546.239","GP_ID":"212976310","LAUNCH_DATE":"2020-02-17","EPOCH":"2022-09-19T12:30:50.756256","TLE_LINE1":"1 45188U 20012L   22262.52142079  .00001421  00000-0  11432-3 0  9997","EPHEMERIS_TYPE":"0","NORAD_CAT_ID":"45188","APOAPSIS":"548.266","FILE":"3577783","INCLINATION":"53.0543","BSTAR":"0.00011432000000","COUNTRY_CODE":"US","ELEMENT_SET_NO":"999","RCS_SIZE":"LARGE","OBJECT_NAME":"STARLINK-1228","DECAY_DATE":null,"REV_AT_EPOCH":"14341","MEAN_MOTION":"15.06387290","PERIOD":"95.593","CLASSIFICATION_TYPE":"U","MEAN_ELEMENT_THEORY":"SGP4","OBJECT_ID":"2020-012L","MEAN_MOTION_DOT":"0.00001421"},{"RCS_SIZE":"LARGE","ELEMENT_SET_NO":"999","OBJECT_NAME":"STARLINK-1230","BSTAR":"0.00026672000000","COUNTRY_CODE":"US","INCLINATION":"53.0549","FILE":"3577889","APOAPSIS":"548.087","NORAD_CAT_ID":"45189","MEAN_MOTION_DOT":"0.00003693","OBJECT_ID":"2020-012M","PERIOD":"95.592","MEAN_MOTION":"15.06398767","CLASSIFICATION_TYPE":"U","MEAN_ELEMENT_THEORY":"SGP4","DECAY_DATE":null,"REV_AT_EPOCH":"14106","MEAN_MOTION_DDOT":"0.0000000000000","ECCENTRICITY":"0.00012560","ARG_OF_PERICENTER":"85.3589","OBJECT_TYPE":"PAYLOAD","RA_OF_ASC_NODE":"335.2895","TIME_SYSTEM":"UTC","SITE":"AFETR","REF_FRAME":"TEME","TLE_LINE2":"2 45189  53.0549 335.2895 0001256  85.3589 274.7544 15.06398767141069","MEAN_ANOMALY":"274.7544","SEMIMAJOR_AXIS":"6925.352","EPHEMERIS_TYPE":"0","TLE_LINE1":"1 45189U 20012M   22262.49560235  .00003693  00000-0  26672-3 0  9997","EPOCH":"2022-09-19T11:53:40.043040","CENTER_NAME":"EARTH","LAUNCH_DATE":"2020-02-17","GP_ID":"212999272","PERIAPSIS":"546.348"},{"MEAN_MOTION_DDOT":"0.0000000000000","ECCENTRICITY":"0.00016380","ARG_OF_PERICENTER":"70.1521","RA_OF_ASC_NODE":"294.0143","OBJECT_TYPE":"PAYLOAD","TIME_SYSTEM":"UTC","SITE":"AFETR","REF_FRAME":"TEME","MEAN_ANOMALY":"289.9644","TLE_LINE2":"2 45190  53.0529 294.0143 0001638  70.1521 289.9644 15.06402123144344","SEMIMAJOR_AXIS":"6925.342","EPHEMERIS_TYPE":"0","TLE_LINE1":"1 45190U 20012N   22262.77941897  .00001912  00000-0  14719-3 0  9998","EPOCH":"2022-09-19T18:42:21.799008","CENTER_NAME":"EARTH","LAUNCH_DATE":"2020-02-17","GP_ID":"213029538","PERIAPSIS":"546.073","RCS_SIZE":"LARGE","OBJECT_NAME":"STARLINK-1234","ELEMENT_SET_NO":"999","BSTAR":"0.00014719000000","COUNTRY_CODE":"US","INCLINATION":"53.0529","FILE":"3578162","APOAPSIS":"548.341","NORAD_CAT_ID":"45190","MEAN_MOTION_DOT":"0.00001912","OBJECT_ID":"2020-012N","PERIOD":"95.592","MEAN_MOTION":"15.06402123","CLASSIFICATION_TYPE":"U","MEAN_ELEMENT_THEORY":"SGP4","DECAY_DATE":null,"REV_AT_EPOCH":"14434"},{"REF_FRAME":"TEME","SEMIMAJOR_AXIS":"6925.332","TLE_LINE2":"2 45191  53.0557 334.6517 0001240  82.1472 277.9658 15.06405478141074","MEAN_ANOMALY":"277.9658","TIME_SYSTEM":"UTC","SITE":"AFETR","RA_OF_ASC_NODE":"334.6517","OBJECT_TYPE":"PAYLOAD","ECCENTRICITY":"0.00012400","ARG_OF_PERICENTER":"82.1472","MEAN_MOTION_DDOT":"0.0000000000000","GP_ID":"213029789","LAUNCH_DATE":"2020-02-17","PERIAPSIS":"546.338","CENTER_NAME":"EARTH","EPOCH":"2022-09-19T15:15:21.144096","TLE_LINE1":"1 45191U 20012P   22262.63566139  .00000715  00000-0  66874-4 0  9996","EPHEMERIS_TYPE":"0","APOAPSIS":"548.056","NORAD_CAT_ID":"45191","INCLINATION":"53.0557","FILE":"3578162","COUNTRY_CODE":"US","BSTAR":"0.00006687400000","ELEMENT_SET_NO":"999","RCS_SIZE":"LARGE","OBJECT_NAME":"STARLINK-1236","REV_AT_EPOCH":"14107","DECAY_DATE":null,"MEAN_ELEMENT_THEORY":"SGP4","CLASSIFICATION_TYPE":"U","PERIOD":"95.592","MEAN_MOTION":"15.06405478","OBJECT_ID":"2020-012P","MEAN_MOTION_DOT":"0.00000715"}];
